start=new Date('2023-02-25T00:00:00.000Z').valueOf();
sats=[{"PERIOD":"91.327","SEMIMAJOR_AXIS":"6717.809","TLE_LINE1":"1 47906U 21021AY  23055.86002902  .00013180  00000-0  84330-4 0  9999","TLE_LINE2":"2 47906  53.0051 271.9508 0001157  87.1489 272.9662 15.76744475113318","BSTAR":"0.00008433000000","RA_OF_ASC_NODE":"271.9508","OBJECT_NAME":"STARLINK-2366","GP_ID":"226777155","ECCENTRICITY":"0.00011570","ARG_OF_PERICENTER":"87.1489","ELEMENT_SET_NO":"999","FILE":"3835059","DECAY_DATE":null,"CLASSIFICATION_TYPE":"U","NORAD_CAT_ID":"47906","APOAPSIS":"340.451","REV_AT_EPOCH":"11331","EPHEMERIS_TYPE":"0","MEAN_ELEMENT_THEORY":"SGP4","RCS_SIZE":"LARGE","PERIAPSIS":"338.896","INCLINATION":"53.0051","LAUNCH_DATE":"2021-03-14","MEAN_MOTION_DOT":"0.00013180","MEAN_MOTION":"15.76744475","OBJECT_TYPE":"PAYLOAD","MEAN_ANOMALY":"272.9662","OBJECT_ID":"2021-021AY","CENTER_NAME":"EARTH","SITE":"AFETR","EPOCH":"2023-02-24T20:38:26.507328","COUNTRY_CODE":"US","TIME_SYSTEM":"UTC","REF_FRAME":"TEME","MEAN_MOTION_DDOT":"0.0000000000000"},{"APOAPSIS":"547.944","REV_AT_EPOCH":"10886","EPHEMERIS_TYPE":"0","MEAN_ELEMENT_THEORY":"SGP4","RCS_SIZE":"LARGE","PERIAPSIS":"546.524","INCLINATION":"53.0525","LAUNCH_DATE":"2021-03-14","MEAN_MOTION_DOT":"0.00004861","MEAN_MOTION":"15.06393416","DECAY_DATE":null,"CLASSIFICATION_TYPE":"U","NORAD_CAT_ID":"47907","RA_OF_ASC_NODE":"220.0232","OBJECT_NAME":"STARLINK-2367","ECCENTRICITY":"0.00010250","GP_ID":"226775907","ELEMENT_SET_NO":"999","ARG_OF_PERICENTER":"84.3941","FILE":"3835059","PERIOD":"95.593","SEMIMAJOR_AXIS":"6925.369","TLE_LINE1":"1 47907U 21021AZ  23055.70950247  .00004861  00000-0  34503-3 0  9999","BSTAR":"0.00034503000000","TLE_LINE2":"2 47907  53.0525 220.0232 0001025  84.3941 275.7165 15.06393416108861","TIME_SYSTEM":"UTC","REF_FRAME":"TEME","MEAN_MOTION_DDOT":"0.0000000000000","SITE":"AFETR","EPOCH":"2023-02-24T17:01:41.013408","COUNTRY_CODE":"US","OBJECT_ID":"2021-021AZ","CENTER_NAME":"EARTH","OBJECT_TYPE":"PAYLOAD","MEAN_ANOMALY":"275.7165"},{"OBJECT_ID":"2021-021BA","CENTER_NAME":"EARTH","OBJECT_TYPE":"PAYLOAD","MEAN_ANOMALY":"268.0495","TIME_SYSTEM":"UTC","MEAN_MOTION_DDOT":"0.0000000000000","REF_FRAME":"TEME","COUNTRY_CODE":"US","EPOCH":"2023-02-24T17:12:18.400896","SITE":"AFETR","ARG_OF_PERICENTER":"92.0617","ELEMENT_SET_NO":"999","FILE":"3835059","RA_OF_ASC_NODE":"219.9890","ECCENTRICITY":"0.00010790","GP_ID":"226776156","OBJECT_NAME":"STARLINK-2368","TLE_LINE2":"2 47908  53.0521 219.9890 0001079  92.0617 268.0495 15.06393264108895","BSTAR":"0.00037106000000","PERIOD":"95.593","TLE_LINE1":"1 47908U 21021BA  23055.71687964  .00005249  00000-0  37106-3 0  9997","SEMIMAJOR_AXIS":"6925.369","LAUNCH_DATE":"2021-03-14","INCLINATION":"53.0521","PERIAPSIS":"546.487","MEAN_MOTION":"15.06393264","MEAN_MOTION_DOT":"0.00005249","EPHEMERIS_TYPE":"0","REV_AT_EPOCH":"10889","APOAPSIS":"547.981","RCS_SIZE":"LARGE","MEAN_ELEMENT_THEORY":"SGP4","NORAD_CAT_ID":"47908","CLASSIFICATION_TYPE":"U","DECAY_DATE":null},{"APOAPSIS":"548.190","REV_AT_EPOCH":"10920","EPHEMERIS_TYPE":"0","MEAN_ELEMENT_THEORY":"SGP4","RCS_SIZE":"LARGE","PERIAPSIS":"546.243","INCLINATION":"53.0536","LAUNCH_DATE":"2021-03-14","MEAN_MOTION_DOT":"-0.00002248","MEAN_MOTION":"15.06398987","DECAY_DATE":null,"CLASSIFICATION_TYPE":"U","NORAD_CAT_ID":"47909","RA_OF_ASC_NODE":"209.9213","OBJECT_NAME":"STARLINK-2369","ECCENTRICITY":"0.00014060","GP_ID":"226776906","ELEMENT_SET_NO":"999","ARG_OF_PERICENTER":"83.5580","FILE":"3835059","PERIOD":"95.592","SEMIMAJOR_AXIS":"6925.352","TLE_LINE1":"1 47909U 21021BB  23055.73253955 -.00002248  00000-0 -13208-3 0  9994","BSTAR":"-0.00013208000000","TLE_LINE2":"2 47909  53.0536 209.9213 0001406  83.5580 276.5569 15.06398987109207","TIME_SYSTEM":"UTC","MEAN_MOTION_DDOT":"0.0000000000000","REF_FRAME":"TEME","SITE":"AFETR","EPOCH":"2023-02-24T17:34:51.417120","COUNTRY_CODE":"US","OBJECT_ID":"2021-021BB","CENTER_NAME":"EARTH","OBJECT_TYPE":"PAYLOAD","MEAN_ANOMALY":"276.5569"},{"OBJECT_TYPE":"PAYLOAD","MEAN_ANOMALY":"276.0749","OBJECT_ID":"2021-021BC","CENTER_NAME":"EARTH","EPOCH":"2023-02-24T20:02:06.050400","COUNTRY_CODE":"US","SITE":"AFETR","TIME_SYSTEM":"UTC","MEAN_MOTION_DDOT":"0.0000000000000","REF_FRAME":"TEME","TLE_LINE2":"2 47910  53.0532 209.4587 0000925  84.0346 276.0749 15.06388289109079","BSTAR":"0.00007047400000","PERIOD":"95.593","SEMIMAJOR_AXIS":"6925.384","TLE_LINE1":"1 47910U 21021BC  23055.83479225  .00000768  00000-0  70474-4 0  9999","ARG_OF_PERICENTER":"84.0346","ELEMENT_SET_NO":"999","FILE":"3835059","RA_OF_ASC_NODE":"209.4587","OBJECT_NAME":"STARLINK-2370","GP_ID":"226776656","ECCENTRICITY":"0.00009250","CLASSIFICATION_TYPE":"U","NORAD_CAT_ID":"47910","DECAY_DATE":null,"INCLINATION":"53.0532","PERIAPSIS":"546.609","LAUNCH_DATE":"2021-03-14","MEAN_MOTION_DOT":"0.00000768","MEAN_MOTION":"15.06388289","APOAPSIS":"547.890","EPHEMERIS_TYPE":"0","REV_AT_EPOCH":"10907","MEAN_ELEMENT_THEORY":"SGP4","RCS_SIZE":"LARGE"},{"RCS_SIZE":"LARGE","MEAN_ELEMENT_THEORY":"SGP4","APOAPSIS":"548.353","REV_AT_EPOCH":"10868","EPHEMERIS_TYPE":"0","MEAN_MOTION_DOT":"0.00002284","MEAN_MOTION":"15.06385172","INCLINATION":"53.0521","PERIAPSIS":"546.165","LAUNCH_DATE":"2021-03-14","DECAY_DATE":null,"CLASSIFICATION_TYPE":"U","NORAD_CAT_ID":"47911","OBJECT_NAME":"STARLINK-2371","GP_ID":"226775408","ECCENTRICITY":"0.00015790","RA_OF_ASC_NODE":"224.9306","FILE":"3835059","ARG_OF_PERICENTER":"89.4554","ELEMENT_SET_NO":"999","SEMIMAJOR_AXIS":"6925.394","TLE_LINE1":"1 47911U 21021BD  23055.78463622  .00002284  00000-0  17224-3 0  9996","PERIOD":"95.593","BSTAR":"0.00017224000000","TLE_LINE2":"2 47911  53.0521 224.9306 0001579  89.4554 270.6616 15.06385172108682","MEAN_MOTION_DDOT":"0.0000000000000","REF_FRAME":"TEME","TIME_SYSTEM":"UTC","SITE":"AFETR","EPOCH":"2023-02-24T18:49:52.569408","COUNTRY_CODE":"US","CENTER_NAME":"EARTH","OBJECT_ID":"2021-021BD","MEAN_ANOMALY":"270.6616","OBJECT_TYPE":"PAYLOAD"},{"ECCENTRICITY":"0.00015690","GP_ID":"226775657","OBJECT_NAME":"STARLINK-2372","RA_OF_ASC_NODE":"210.0796","FILE":"3835059","ARG_OF_PERICENTER":"88.4290","ELEMENT_SET_NO":"999","TLE_LINE1":"1 47912U 21021BE  23055.69473370  .00005084  00000-0  36003-3 0  9995","SEMIMAJOR_AXIS":"6925.383","PERIOD":"95.593","BSTAR":"0.00036003000000","TLE_LINE2":"2 47912  53.0509 210.0796 0001569  88.4290 271.6879 15.06388682108886","MEAN_ELEMENT_THEORY":"SGP4","RCS_SIZE":"LARGE","EPHEMERIS_TYPE":"0","REV_AT_EPOCH":"10888","APOAPSIS":"548.335","MEAN_MOTION":"15.06388682","MEAN_MOTION_DOT":"0.00005084","LAUNCH_DATE":"2021-03-14","PERIAPSIS":"546.162","INCLINATION":"53.0509","DECAY_DATE":null,"NORAD_CAT_ID":"47912","CLASSIFICATION_TYPE":"U","CENTER_NAME":"EARTH","OBJECT_ID":"2021-021BE","MEAN_ANOMALY":"271.6879","OBJECT_TYPE":"PAYLOAD","MEAN_MOTION_DDOT":"0.0000000000000","REF_FRAME":"TEME","TIME_SYSTEM":"UTC","SITE":"AFETR","COUNTRY_CODE":"US","EPOCH":"2023-02-24T16:40:24.991680"},{"OBJECT_TYPE":"PAYLOAD","MEAN_ANOMALY":"267.9364","OBJECT_ID":"2021-021BF","CENTER_NAME":"EARTH","SITE":"AFETR","COUNTRY_CODE":"US","EPOCH":"2023-02-24T20:02:14.025984","TIME_SYSTEM":"UTC","MEAN_MOTION_DDOT":"0.0000000000000","REF_FRAME":"TEME","PERIOD":"95.593","TLE_LINE1":"1 47913U 21021BF  23055.83488456  .00003725  00000-0  26886-3 0  9991","SEMIMAJOR_AXIS":"6925.370","BSTAR":"0.00026886000000","TLE_LINE2":"2 47913  53.0538 219.9357 0001353  92.1780 267.9364 15.06392968108921","RA_OF_ASC_NODE":"219.9357","ECCENTRICITY":"0.00013530","GP_ID":"226776407","OBJECT_NAME":"STARLINK-2374","ARG_OF_PERICENTER":"92.1780","ELEMENT_SET_NO":"999","FILE":"3835059","DECAY_DATE":null,"NORAD_CAT_ID":"47913","CLASSIFICATION_TYPE":"U","EPHEMERIS_TYPE":"0","REV_AT_EPOCH":"10892","APOAPSIS":"548.172","MEAN_ELEMENT_THEORY":"SGP4","RCS_SIZE":"LARGE","LAUNCH_DATE":"2021-03-14","INCLINATION":"53.0538","PERIAPSIS":"546.298","MEAN_MOTION":"15.06392968","MEAN_MOTION_DOT":"0.00003725"},{"FILE":"3835059","ELEMENT_SET_NO":"999","ARG_OF_PERICENTER":"73.1870","ECCENTRICITY":"0.00012570","GP_ID":"226777156","OBJECT_NAME":"STARLINK-2375","RA_OF_ASC_NODE":"219.9717","TLE_LINE2":"2 47914  53.0518 219.9717 0001257  73.1870 286.9257 15.06398326108906","BSTAR":"0.00055570000000","TLE_LINE1":"1 47914U 21021BG  23055.72057171  .00008005  00000-0  55570-3 0  9994","SEMIMAJOR_AXIS":"6925.354","PERIOD":"95.592","MEAN_MOTION":"15.06398326","MEAN_MOTION_DOT":"0.00008005","LAUNCH_DATE":"2021-03-14","INCLINATION":"53.0518","PERIAPSIS":"546.348","RCS_SIZE":"LARGE","MEAN_ELEMENT_THEORY":"SGP4","REV_AT_EPOCH":"10890","EPHEMERIS_TYPE":"0","APOAPSIS":"548.089","NORAD_CAT_ID":"47914","CLASSIFICATION_TYPE":"U","DECAY_DATE":null,"CENTER_NAME":"EARTH","OBJECT_ID":"2021-021BG","MEAN_ANOMALY":"286.9257","OBJECT_TYPE":"PAYLOAD","MEAN_MOTION_DDOT":"0.0000000000000","REF_FRAME":"TEME","TIME_SYSTEM":"UTC","COUNTRY_CODE":"US","EPOCH":"2023-02-24T17:17:37.395744","SITE":"AFETR"},{"OBJECT_ID":"2021-021BH","CENTER_NAME":"EARTH","OBJECT_TYPE":"PAYLOAD","MEAN_ANOMALY":"266.3641","TIME_SYSTEM":"UTC","REF_FRAME":"TEME","MEAN_MOTION_DDOT":"0.0000000000000","COUNTRY_CODE":"US","EPOCH":"2023-02-24T15:40:03.643680","SITE":"AFETR","ELEMENT_SET_NO":"999","ARG_OF_PERICENTER":"93.7486","FILE":"3835059","RA_OF_ASC_NODE":"215.2778","ECCENTRICITY":"0.00012070","GP_ID":"226775908","OBJECT_NAME":"STARLINK-2376","BSTAR":"0.00013429000000","TLE_LINE2":"2 47915  53.0538 215.2778 0001207  93.7486 266.3641 15.06386768108974","PERIOD":"95.593","TLE_LINE1":"1 47915U 21021BH  23055.65281995  .00001719  00000-0  13429-3 0  9992","SEMIMAJOR_AXIS":"6925.389","LAUNCH_DATE":"2021-03-14","PERIAPSIS":"546.418","INCLINATION":"53.0538","MEAN_MOTION":"15.06386768","MEAN_MOTION_DOT":"0.00001719","REV_AT_EPOCH":"10897","EPHEMERIS_TYPE":"0","APOAPSIS":"548.090","MEAN_ELEMENT_THEORY":"SGP4","RCS_SIZE":"LARGE","NORAD_CAT_ID":"47915","CLASSIFICATION_TYPE":"U","DECAY_DATE":null}];
